start=new Date('2023-05-13T00:00:00.000Z').valueOf();
sats=[{"REF_FRAME":"TEME","SEMIMAJOR_AXIS":"6917.884","RA_OF_ASC_NODE":"281.9943","BSTAR":"0.00007042800000","ARG_OF_PERICENTER":"90.6615","REV_AT_EPOCH":"6828","PERIAPSIS":"539.183","LAUNCH_DATE":"2022-02-25","INCLINATION":"53.2162","ELEMENT_SET_NO":"999","OBJECT_ID":"2022-017AZ","MEAN_MOTION":"15.08838750","SITE":"AFWTR","CENTER_NAME":"EARTH","PERIOD":"95.438","TIME_SYSTEM":"UTC","MEAN_ANOMALY":"269.4471","OBJECT_TYPE":"PAYLOAD","OBJECT_NAME":"STARLINK-3604","MEAN_MOTION_DOT":"0.00000833","APOAPSIS":"540.316","EPHEMERIS_TYPE":"0","TLE_LINE2":"2 51815  53.2162 281.9943 0000819  90.6615 269.4471 15.08838750 68284","MEAN_ELEMENT_THEORY":"SGP4","COUNTRY_CODE":"US","CLASSIFICATION_TYPE":"U","RCS_SIZE":"LARGE","NORAD_CAT_ID":"51815","MEAN_MOTION_DDOT":"0.0000000000000","DECAY_DATE":null,"EPOCH":"2023-05-12T16:17:22.399008","FILE":"3906381","GP_ID":"231709858","ECCENTRICITY":"0.00008190","TLE_LINE1":"1 51815U 22017AZ  23132.67873147  .00000833  00000-0  70428-4 0  9995"},{"MEAN_ANOMALY":"269.6602","TIME_SYSTEM":"UTC","CENTER_NAME":"EARTH","SITE":"AFWTR","PERIOD":"95.437","MEAN_MOTION":"15.08846742","MEAN_MOTION_DOT":"0.00000357","APOAPSIS":"540.361","OBJECT_NAME":"STARLINK-3603","OBJECT_TYPE":"PAYLOAD","RA_OF_ASC_NODE":"281.7322","BSTAR":"0.00004048100000","SEMIMAJOR_AXIS":"6917.860","REF_FRAME":"TEME","OBJECT_ID":"2022-017BA","INCLINATION":"53.2169","ELEMENT_SET_NO":"999","PERIAPSIS":"539.088","LAUNCH_DATE":"2022-02-25","ARG_OF_PERICENTER":"90.4496","REV_AT_EPOCH":"6834","DECAY_DATE":null,"EPOCH":"2023-05-12T17:42:09.408960","MEAN_MOTION_DDOT":"0.0000000000000","TLE_LINE1":"1 51816U 22017BA  23132.73760890  .00000357  00000-0  40481-4 0  9990","GP_ID":"231709110","ECCENTRICITY":"0.00009200","FILE":"3906381","EPHEMERIS_TYPE":"0","RCS_SIZE":"MEDIUM","NORAD_CAT_ID":"51816","CLASSIFICATION_TYPE":"U","TLE_LINE2":"2 51816  53.2169 281.7322 0000920  90.4496 269.6602 15.08846742 68344","MEAN_ELEMENT_THEORY":"SGP4","COUNTRY_CODE":"US"},{"MEAN_MOTION":"15.92705537","MEAN_ANOMALY":"285.2915","TIME_SYSTEM":"UTC","PERIOD":"90.412","CENTER_NAME":"EARTH","SITE":"AFWTR","OBJECT_TYPE":"PAYLOAD","APOAPSIS":"299.262","MEAN_MOTION_DOT":"0.00284529","OBJECT_NAME":"STARLINK-3596","REF_FRAME":"TEME","SEMIMAJOR_AXIS":"6672.852","RA_OF_ASC_NODE":"106.4971","BSTAR":"0.00081473000000","LAUNCH_DATE":"2022-02-25","PERIAPSIS":"290.173","ARG_OF_PERICENTER":"74.8864","REV_AT_EPOCH":"7080","OBJECT_ID":"2022-017BB","INCLINATION":"53.1800","ELEMENT_SET_NO":"999","EPOCH":"2023-05-12T05:02:06.281088","DECAY_DATE":null,"MEAN_MOTION_DDOT":"0.0000418270000","ECCENTRICITY":"0.00068100","GP_ID":"231679867","FILE":"3906111","TLE_LINE1":"1 51817U 22017BB  23132.20979492  .00284529  41827-4  81473-3 0  9999","EPHEMERIS_TYPE":"0","CLASSIFICATION_TYPE":"U","MEAN_ELEMENT_THEORY":"SGP4","COUNTRY_CODE":"US","TLE_LINE2":"2 51817  53.1800 106.4971 0006810  74.8864 285.2915 15.92705537 70802","NORAD_CAT_ID":"51817","RCS_SIZE":"LARGE"},{"OBJECT_TYPE":"PAYLOAD","APOAPSIS":"540.515","MEAN_MOTION_DOT":"0.00000889","OBJECT_NAME":"STARLINK-3542","MEAN_MOTION":"15.08841855","MEAN_ANOMALY":"282.1232","TIME_SYSTEM":"UTC","PERIOD":"95.437","SITE":"AFETR","CENTER_NAME":"EARTH","LAUNCH_DATE":"2022-03-03","PERIAPSIS":"538.965","REV_AT_EPOCH":"6597","ARG_OF_PERICENTER":"77.9886","OBJECT_ID":"2022-022A","INCLINATION":"53.2167","ELEMENT_SET_NO":"999","SEMIMAJOR_AXIS":"6917.875","REF_FRAME":"TEME","BSTAR":"0.00007391900000","RA_OF_ASC_NODE":"331.6052","ECCENTRICITY":"0.00011200","GP_ID":"231709862","FILE":"3906381","TLE_LINE1":"1 51852U 22022A   23132.76613351  .00000889  00000-0  73919-4 0  9990","DECAY_DATE":null,"MEAN_MOTION_DDOT":"0.0000000000000","EPOCH":"2023-05-12T18:23:13.935264","CLASSIFICATION_TYPE":"U","MEAN_ELEMENT_THEORY":"SGP4","COUNTRY_CODE":"US","TLE_LINE2":"2 51852  53.2167 331.6052 0001120  77.9886 282.1232 15.08841855 65978","NORAD_CAT_ID":"51852","RCS_SIZE":"LARGE","EPHEMERIS_TYPE":"0"},{"OBJECT_TYPE":"PAYLOAD","OBJECT_NAME":"STARLINK-3539","MEAN_MOTION_DOT":"0.00003594","APOAPSIS":"540.450","MEAN_MOTION":"15.08848914","SITE":"AFETR","CENTER_NAME":"EARTH","PERIOD":"95.437","TIME_SYSTEM":"UTC","MEAN_ANOMALY":"248.3294","ARG_OF_PERICENTER":"111.7810","REV_AT_EPOCH":"6717","PERIAPSIS":"538.986","LAUNCH_DATE":"2022-03-03","INCLINATION":"53.2164","ELEMENT_SET_NO":"999","OBJECT_ID":"2022-022B","SEMIMAJOR_AXIS":"6917.853","REF_FRAME":"TEME","RA_OF_ASC_NODE":"331.5919","BSTAR":"0.00024371000000","FILE":"3906381","GP_ID":"231709114","ECCENTRICITY":"0.00010580","TLE_LINE1":"1 51853U 22022B   23132.77076813  .00003594  00000-0  24371-3 0  9991","EPOCH":"2023-05-12T18:29:54.366432","DECAY_DATE":null,"MEAN_MOTION_DDOT":"0.0000000000000","TLE_LINE2":"2 51853  53.2164 331.5919 0001058 111.7810 248.3294 15.08848914 67170","COUNTRY_CODE":"US","MEAN_ELEMENT_THEORY":"SGP4","CLASSIFICATION_TYPE":"U","RCS_SIZE":"LARGE","NORAD_CAT_ID":"51853","EPHEMERIS_TYPE":"0"},{"TLE_LINE2":"2 51854  53.2174 331.6244 0001236  54.3645 305.7462 15.08837708 67231","MEAN_ELEMENT_THEORY":"SGP4","COUNTRY_CODE":"US","CLASSIFICATION_TYPE":"U","RCS_SIZE":"LARGE","NORAD_CAT_ID":"51854","EPHEMERIS_TYPE":"0","FILE":"3906381","GP_ID":"231709364","ECCENTRICITY":"0.00012360","TLE_LINE1":"1 51854U 22022C   23132.76246500 -.00000341  00000-0 -33407-5 0  9994","MEAN_MOTION_DDOT":"0.0000000000000","DECAY_DATE":null,"EPOCH":"2023-05-12T18:17:56.976000","REV_AT_EPOCH":"6723","ARG_OF_PERICENTER":"54.3645","PERIAPSIS":"538.897","LAUNCH_DATE":"2022-03-03","ELEMENT_SET_NO":"999","INCLINATION":"53.2174","OBJECT_ID":"2022-022C","SEMIMAJOR_AXIS":"6917.887","REF_FRAME":"TEME","RA_OF_ASC_NODE":"331.6244","BSTAR":"-0.00000334070000","OBJECT_TYPE":"PAYLOAD","OBJECT_NAME":"STARLINK-3541","MEAN_MOTION_DOT":"-0.00000341","APOAPSIS":"540.607","MEAN_MOTION":"15.08837708","CENTER_NAME":"EARTH","SITE":"AFETR","PERIOD":"95.438","MEAN_ANOMALY":"305.7462","TIME_SYSTEM":"UTC"},{"LAUNCH_DATE":"2022-03-03","PERIAPSIS":"535.654","ARG_OF_PERICENTER":"311.1337","REV_AT_EPOCH":"6718","OBJECT_ID":"2022-022D","ELEMENT_SET_NO":"999","INCLINATION":"53.2173","SEMIMAJOR_AXIS":"6917.898","REF_FRAME":"TEME","RA_OF_ASC_NODE":"331.6523","BSTAR":"0.00002293900000","OBJECT_TYPE":"PAYLOAD","APOAPSIS":"543.873","MEAN_MOTION_DOT":"0.00000075","OBJECT_NAME":"STARLINK-3545","MEAN_MOTION":"15.08834095","MEAN_ANOMALY":"48.9142","TIME_SYSTEM":"UTC","PERIOD":"95.438","CENTER_NAME":"EARTH","SITE":"AFETR","CLASSIFICATION_TYPE":"U","COUNTRY_CODE":"US","MEAN_ELEMENT_THEORY":"SGP4","TLE_LINE2":"2 51855  53.2173 331.6523 0005940 311.1337  48.9142 15.08834095 67180","NORAD_CAT_ID":"51855","RCS_SIZE":"LARGE","EPHEMERIS_TYPE":"0","ECCENTRICITY":"0.00059400","GP_ID":"231710110","FILE":"3906381","TLE_LINE1":"1 51855U 22022D   23132.75234847  .00000075  00000-0  22939-4 0  9994","MEAN_MOTION_DDOT":"0.0000000000000","DECAY_DATE":null,"EPOCH":"2023-05-12T18:03:22.907808"},{"REF_FRAME":"TEME","SEMIMAJOR_AXIS":"6917.887","RA_OF_ASC_NODE":"331.6425","BSTAR":"0.00082262000000","ARG_OF_PERICENTER":"93.0229","REV_AT_EPOCH":"6726","PERIAPSIS":"538.999","LAUNCH_DATE":"2022-03-03","ELEMENT_SET_NO":"999","INCLINATION":"53.2167","OBJECT_ID":"2022-022E","MEAN_MOTION":"15.08837704","CENTER_NAME":"EARTH","SITE":"AFETR","PERIOD":"95.438","TIME_SYSTEM":"UTC","MEAN_ANOMALY":"267.0888","OBJECT_TYPE":"PAYLOAD","OBJECT_NAME":"STARLINK-3568","MEAN_MOTION_DOT":"0.00012827","APOAPSIS":"540.506","EPHEMERIS_TYPE":"0","TLE_LINE2":"2 51856  53.2167 331.6425 0001089  93.0229 267.0888 15.08837704 67261","COUNTRY_CODE":"US","MEAN_ELEMENT_THEORY":"SGP4","CLASSIFICATION_TYPE":"U","RCS_SIZE":"LARGE","NORAD_CAT_ID":"51856","MEAN_MOTION_DDOT":"0.0000000000000","DECAY_DATE":null,"EPOCH":"2023-05-12T18:14:01.147200","FILE":"3906381","GP_ID":"231710362","ECCENTRICITY":"0.00010890","TLE_LINE1":"1 51856U 22022E   23132.75973550  .00012827  00000-0  82262-3 0  9998"},{"SEMIMAJOR_AXIS":"6917.880","REF_FRAME":"TEME","BSTAR":"0.00009549600000","RA_OF_ASC_NODE":"331.6844","LAUNCH_DATE":"2022-03-03","PERIAPSIS":"539.319","ARG_OF_PERICENTER":"114.2861","REV_AT_EPOCH":"6723","OBJECT_ID":"2022-022F","INCLINATION":"53.2174","ELEMENT_SET_NO":"999","MEAN_MOTION":"15.08840072","TIME_SYSTEM":"UTC","MEAN_ANOMALY":"245.8195","PERIOD":"95.438","SITE":"AFETR","CENTER_NAME":"EARTH","OBJECT_TYPE":"PAYLOAD","APOAPSIS":"540.171","MEAN_MOTION_DOT":"0.00001233","OBJECT_NAME":"STARLINK-3571","EPHEMERIS_TYPE":"0","CLASSIFICATION_TYPE":"U","COUNTRY_CODE":"US","MEAN_ELEMENT_THEORY":"SGP4","TLE_LINE2":"2 51857  53.2174 331.6844 0000616 114.2861 245.8195 15.08840072 67232","NORAD_CAT_ID":"51857","RCS_SIZE":"LARGE","DECAY_DATE":null,"MEAN_MOTION_DDOT":"0.0000000000000","EPOCH":"2023-05-12T17:56:44.005056","ECCENTRICITY":"0.00006160","GP_ID":"231708615","FILE":"3906381","TLE_LINE1":"1 51857U 22022F   23132.74773154  .00001233  00000-0  95496-4 0  9999"},{"OBJECT_TYPE":"PAYLOAD","OBJECT_NAME":"STARLINK-3563","APOAPSIS":"540.447","MEAN_MOTION_DOT":"0.00001939","MEAN_MOTION":"15.08844559","PERIOD":"95.437","CENTER_NAME":"EARTH","SITE":"AFETR","TIME_SYSTEM":"UTC","MEAN_ANOMALY":"273.6000","ARG_OF_PERICENTER":"86.5111","REV_AT_EPOCH":"6723","LAUNCH_DATE":"2022-03-03","PERIAPSIS":"539.015","ELEMENT_SET_NO":"999","INCLINATION":"53.2170","OBJECT_ID":"2022-022G","SEMIMAJOR_AXIS":"6917.866","REF_FRAME":"TEME","RA_OF_ASC_NODE":"331.6685","BSTAR":"0.00013983000000","FILE":"3906381","ECCENTRICITY":"0.00010350","GP_ID":"231708865","TLE_LINE1":"1 51858U 22022G   23132.75141247  .00001939  00000-0  13983-3 0  9996","EPOCH":"2023-05-12T18:02:02.037408","DECAY_DATE":null,"MEAN_MOTION_DDOT":"0.0000000000000","COUNTRY_CODE":"US","MEAN_ELEMENT_THEORY":"SGP4","TLE_LINE2":"2 51858  53.2170 331.6685 0001035  86.5111 273.6000 15.08844559 67235","CLASSIFICATION_TYPE":"U","NORAD_CAT_ID":"51858","RCS_SIZE":"LARGE","EPHEMERIS_TYPE":"0"}];
